NORAD_CAT_ID,OBJECT_NAME,OBJECT_TYPE,EPOCH,MEAN_MOTION,ECCENTRICITY,INCLINATION,RA_OF_ASC_NODE,ARG_OF_PERICENTER,MEAN_ANOMALY,BSTAR,MEAN_MOTION_DOT,MEAN_MOTION_DDOT,TLE_LINE0,TLE_LINE1,TLE_LINE2,SEMIMAJOR_AXIS,PERIOD,APOGEE,PERIGEE,DECAYED
49441.0,STARLINK-3128,PAYLOAD,2024-06-27 12:43:17,15.08835675,0.0001214,53.2169,113.127,93.3296,266.7835,2.4329e-05,9.9e-07,0.0,0 STARLINK-3128,1 49441U 21104AK  24179.53006093  .00000099  00000-0  24329-4 0  9991,2 49441  53.2169 113.1270 0001214  93.3296 266.7835 15.08835675145291,6917.894,95.438,540.598,538.919,0.0
49441.0,STARLINK-3128,PAYLOAD,2024-06-28 03:01:45,15.08839928,0.0001366,53.2165,110.4497,83.7927,276.3221,-3.1705e-05,-7.92e-06,0.0,0 STARLINK-3128,1 49441U 21104AK  24180.12622267 -.00000792  00000-0 -31705-4 0  9993,2 49441  53.2165 110.4497 0001366  83.7927 276.3221 15.08839928146461,6917.881,95.438,540.691,538.801,0.0
49441.0,STARLINK-3128,PAYLOAD,2024-06-28 12:34:03,15.0884535,0.0001403,53.2168,108.6667,87.2669,272.8483,7.1521e-05,8.51e-06,0.0,0 STARLINK-3128,1 49441U 21104AK  24180.52365690  .00000851  00000-0  71521-4 0  9995,2 49441  53.2168 108.6667 0001403  87.2669 272.8483 15.08845350145440,6917.864,95.437,540.7,538.758,0.0
49441.0,STARLINK-3128,PAYLOAD,2024-06-29 04:27:53,15.08869751,0.0001282,53.2168,105.6919,87.426,272.6879,0.0003097,4.648e-05,0.0,0 STARLINK-3128,1 49441U 21104AK  24181.18603142  .00004648  00000-0  30970-3 0  9995,2 49441  53.2168 105.6919 0001282  87.4260 272.6879 15.08869751146620,6917.789,95.436,540.541,538.768,0.0
49441.0,STARLINK-3128,PAYLOAD,2024-06-29 12:24:51,15.08834638,0.000111,53.2164,104.2046,107.7161,252.3952,2.9933e-05,1.89e-06,0.0,0 STARLINK-3128,1 49441U 21104AK  24181.51725879  .00000189  00000-0  29933-4 0  9998,2 49441  53.2164 104.2046 0001110 107.7161 252.3952 15.08834638146676,6917.897,95.438,540.53,538.994,0.0
49441.0,STARLINK-3128,PAYLOAD,2024-06-30 04:18:44,15.08824547,0.0001593,53.2156,101.2295,113.6698,246.4461,-0.00011796,-2.164e-05,0.0,0 STARLINK-3128,1 49441U 21104AK  24182.17967686 -.00002164  00000-0 -11796-3 0  9999,2 49441  53.2156 101.2295 0001593 113.6698 246.4461 15.08824547146774,6917.928,95.439,540.895,538.691,0.0
49441.0,STARLINK-3128,PAYLOAD,2024-06-30 12:15:38,15.08838279,0.0001297,53.2169,99.7489,95.36,264.754,-6.6173e-06,-3.93e-06,0.0,0 STARLINK-3128,1 49441U 21104AK  24182.51086679 -.00000393  00000-0 -66173-5 0  9994,2 49441  53.2169  99.7489 0001297  95.3600 264.7540 15.08838279146828,6917.886,95.438,540.648,538.853,0.0
49441.0,STARLINK-3128,PAYLOAD,2024-06-30 18:37:10,15.08849148,0.0001171,53.2175,98.5548,115.5076,244.6037,3.2916e-05,2.36e-06,0.0,0 STARLINK-3128,1 49441U 21104AK  24182.77581698  .00000236  00000-0  32916-4 0  9994,2 49441  53.2175  98.5548 0001171 115.5076 244.6037 15.08849148146860,6917.852,95.437,540.528,538.907,0.0
49441.0,STARLINK-3128,PAYLOAD,2024-06-30 21:47:56,15.08855342,0.0001264,53.216,97.9618,106.9424,253.1706,7.8147e-05,9.57e-06,0.0,0 STARLINK-3128,1 49441U 21104AK  24182.90829251  .00000957  00000-0  78147-4 0  9995,2 49441  53.2160  97.9618 0001264 106.9424 253.1706 15.08855342145803,6917.833,95.437,540.573,538.824,0.0
49441.0,STARLINK-3128,PAYLOAD,2024-07-01 04:09:29,15.08856825,0.0001451,53.2128,96.7719,96.9042,263.2115,0.00022727,3.333e-05,0.0,0 STARLINK-3128,1 49441U 21104AK  24183.17325367  .00003333  00000-0  22727-3 0  9997,2 49441  53.2128  96.7719 0001451  96.9042 263.2115 15.08856825145845,6917.829,95.436,540.698,538.69,0.0
49441.0,STARLINK-3128,PAYLOAD,2024-07-01 21:38:44,15.08832224,0.0001352,53.2155,93.5004,122.8654,237.2469,0.000301,4.505e-05,0.0,0 STARLINK-3128,1 49441U 21104AK  24183.90190945  .00004505  00000-0  30100-3 0  9996,2 49441  53.2155  93.5004 0001352 122.8654 237.2469 15.08832224147038,6917.904,95.438,540.704,538.834,0.0
49441.0,STARLINK-3128,PAYLOAD,2024-07-02 10:21:49,15.08842911,0.0001166,53.2161,91.1224,97.25,262.8624,0.00017399,2.483e-05,0.0,0 STARLINK-3128,1 49441U 21104AK  24184.43182631  .00002483  00000-0  17399-3 0  9996,2 49441  53.2161  91.1224 0001166  97.2500 262.8624 15.08842911146031,6917.871,95.437,540.543,538.93,0.0
49441.0,STARLINK-3128,PAYLOAD,2024-07-02 21:29:31,15.0883743,0.0001326,53.2173,89.0399,109.0889,251.0247,0.00020275,2.94e-05,0.0,0 STARLINK-3128,1 49441U 21104AK  24184.89550865  .00002940  00000-0  20275-3 0  9999,2 49441  53.2173  89.0399 0001326 109.0889 251.0247 15.08837430146102,6917.888,95.438,540.671,538.836,0.0
49441.0,STARLINK-3128,PAYLOAD,2024-07-02 23:04:55,15.08837684,0.0001291,53.2169,88.7425,106.6552,253.4582,0.00021365,3.114e-05,0.0,0 STARLINK-3128,1 49441U 21104AK  24184.96174869  .00003114  00000-0  21365-3 0  9998,2 49441  53.2169  88.7425 0001291 106.6552 253.4582 15.08837684147193,6917.887,95.438,540.646,538.859,0.0
49441.0,STARLINK-3128,PAYLOAD,2024-07-03 10:12:34,15.08894251,9.32e-05,53.2163,86.6594,76.8327,283.2769,0.0012212,0.0001923,0.0,0 STARLINK-3128,1 49441U 21104AK  24185.42539970  .00019230  00000-0  12212-2 0  9994,2 49441  53.2163  86.6594 0000932  76.8327 283.2769 15.08894251147269,6917.715,95.434,540.224,538.935,0.0
49441.0,STARLINK-3128,PAYLOAD,2024-07-03 21:20:17,15.0883748,0.0001421,53.2169,84.5798,95.7597,264.3557,-0.00031409,-5.283e-05,0.0,0 STARLINK-3128,1 49441U 21104AK  24185.88909388 -.00005283  00000-0 -31409-3 0  9993,2 49441  53.2169  84.5798 0001421  95.7597 264.3557 15.08837480147335,6917.888,95.438,540.736,538.77,0.0
49441.0,STARLINK-3128,PAYLOAD,2024-07-04 10:03:23,15.08829208,0.0001337,53.2162,82.2008,95.3373,264.7772,-0.00018252,-3.191e-05,0.0,0 STARLINK-3128,1 49441U 21104AK  24186.41902226 -.00003191  00000-0 -18252-3 0  9994,2 49441  53.2162  82.2008 0001337  95.3373 264.7772 15.08829208147412,6917.913,95.438,540.703,538.853,0.0
49441.0,STARLINK-3128,PAYLOAD,2024-07-04 22:46:28,15.08835241,0.0001517,53.2172,79.822,97.5626,262.5538,-0.00013017,-2.359e-05,0.0,0 STARLINK-3128,1 49441U 21104AK  24186.94894517 -.00002359  00000-0 -13017-3 0  9994,2 49441  53.2172  79.8220 0001517  97.5626 262.5538 15.08835241146415,6917.895,95.438,540.809,538.71,0.0
49441.0,STARLINK-3128,PAYLOAD,2024-07-05 01:57:14,15.08840105,0.0001588,53.2166,79.2272,91.6307,268.4867,-4.2948e-05,-9.71e-06,0.0,0 STARLINK-3128,1 49441U 21104AK  24187.08142274 -.00000971  00000-0 -42948-4 0  9990,2 49441  53.2166  79.2272 0001588  91.6307 268.4867 15.08840105147515,6917.88,95.438,540.844,538.647,0.0
49441.0,STARLINK-3128,PAYLOAD,2024-07-05 09:54:10,15.08847158,0.0001513,53.2161,77.7403,86.0636,274.0529,-0.00024417,-4.173e-05,0.0,0 STARLINK-3128,1 49441U 21104AK  24187.41261687 -.00004173  00000-0 -24417-3 0  9995,2 49441  53.2161  77.7403 0001513  86.0636 274.0529 15.08847158146488,6917.859,95.437,540.77,538.677,0.0
49441.0,STARLINK-3128,PAYLOAD,2024-07-05 21:01:53,15.08834305,0.0001789,53.2171,75.6586,89.7217,270.398,0.00025975,3.848e-05,0.0,0 STARLINK-3128,1 49441U 21104AK  24187.87630946  .00003848  00000-0  25975-3 0  9999,2 49441  53.2171  75.6586 0001789  89.7217 270.3980 15.08834305147636,6917.898,95.438,541.0,538.525,0.0
49441.0,STARLINK-3128,PAYLOAD,2024-07-05 22:37:16,15.08834678,0.0001539,53.2154,75.3645,102.9686,257.1478,0.00021684,3.164e-05,0.0,0 STARLINK-3128,1 49441U 21104AK  24187.94254889  .00003164  00000-0  21684-3 0  9999,2 49441  53.2154  75.3645 0001539 102.9686 257.1478 15.08834678146560,6917.897,95.438,540.826,538.697,0.0
49441.0,STARLINK-3128,PAYLOAD,2024-07-06 09:44:58,15.08832192,0.0001888,53.2173,73.2799,88.8836,271.2373,0.00015014,2.102e-05,0.0,0 STARLINK-3128,1 49441U 21104AK  24188.40623328  .00002102  00000-0  15014-3 0  9990,2 49441  53.2173  73.2799 0001888  88.8836 271.2373 15.08832192146632,6917.904,95.438,541.075,538.463,0.0
49441.0,STARLINK-3128,PAYLOAD,2024-07-06 22:28:03,15.0883912,0.0001628,53.2178,70.8984,99.0557,261.0619,0.00012838,1.756e-05,0.0,0 STARLINK-3128,1 49441U 21104AK  24188.93615074  .00001756  00000-0  12838-3 0  9992,2 49441  53.2178  70.8984 0001628  99.0557 261.0619 15.08839120146719,6917.883,95.438,540.874,538.622,0.0
49441.0,STARLINK-3128,PAYLOAD,2024-07-07 01:38:49,15.0884101,0.0001643,53.2175,70.3028,99.0983,261.0195,0.00016935,2.408e-05,0.0,0 STARLINK-3128,1 49441U 21104AK  24189.06863020  .00002408  00000-0  16935-3 0  9990,2 49441  53.2175  70.3028 0001643  99.0983 261.0195 15.08841010147812,6917.877,95.437,540.879,538.606,0.0
49441.0,STARLINK-3128,PAYLOAD,2024-07-07 22:18:50,15.08848938,0.0001569,53.2175,66.4362,103.6552,256.4615,0.00026965,4.007e-05,0.0,0 STARLINK-3128,1 49441U 21104AK  24189.92974715  .00004007  00000-0  26965-3 0  9990,2 49441  53.2175  66.4362 0001569 103.6552 256.4615 15.08848938146865,6917.853,95.437,540.803,538.633,0.0
49441.0,STARLINK-3128,PAYLOAD,2024-07-08 20:34:14,15.08840771,0.0001577,53.2179,62.2738,100.1614,259.9556,9.6916e-05,1.255e-05,0.0,0 STARLINK-3128,1 49441U 21104AK  24190.85711058  .00001255  00000-0  96916-4 0  9999,2 49441  53.2179  62.2738 0001577 100.1614 259.9556 15.08840771148085,6917.878,95.438,540.834,538.652,0.0
49441.0,STARLINK-3128,PAYLOAD,2024-07-08 22:09:37,15.08840377,0.0001563,53.2176,61.9776,90.8564,269.2608,0.0001368,1.89e-05,0.0,0 STARLINK-3128,1 49441U 21104AK  24190.92335149  .00001890  00000-0  13680-3 0  9991,2 49441  53.2176  61.9776 0001563  90.8564 269.2608 15.08840377147010,6917.879,95.438,540.826,538.663,0.0
49441.0,STARLINK-3128,PAYLOAD,2024-07-09 22:00:24,15.0884485,0.0001343,53.2173,57.5184,88.2286,271.886,6.1043e-05,6.84e-06,0.0,0 STARLINK-3128,1 49441U 21104AK  24191.91694826  .00000684  00000-0  61043-4 0  9998,2 49441  53.2173  57.5184 0001343  88.2286 271.8860 15.08844850147164,6917.866,95.437,540.66,538.801,0.0
49441.0,STARLINK-3128,PAYLOAD,2024-07-10 01:11:10,15.08844765,0.0001396,53.2167,56.9233,87.0656,273.0496,6.273e-05,7.11e-06,0.0,0 STARLINK-3128,1 49441U 21104AK  24192.04942809  .00000711  00000-0  62730-4 0  9995,2 49441  53.2167  56.9233 0001396  87.0656 273.0496 15.08844765148267,6917.866,95.437,540.697,538.765,0.0
